ISS OBJECT XZ           
1 67683U 98067XZ  26055.52115121  .00032720  00000+0  56399-3 0  9994
2 67683  51.6308 137.2241 0009828 141.7373 218.4315 15.50692903  2745
GXIBA-1                 
1 67684U 98067YA  26055.51036411  .00066405  00000+0  10731-2 0  9994
2 67684  51.6305 137.1526 0011405 133.9104 226.2829 15.52162735  2741
CORAL                   
1 67685U 98067YB  26055.51921871  .00040179  00000+0  68366-3 0  9996
2 67685  51.6307 137.2112 0011826 138.3350 221.8542 15.50934033  2744
ISS OBJECT YC           
1 67686U 98067YC  26055.51714998  .00045468  00000+0  76511-3 0  9994
2 67686  51.6312 137.1991 0007729 108.4650 251.7180 15.51233940  2743
LEOPARD                 
1 67687U 98067YD  26055.58446845  .00032740  00000+0  56208-3 0  9995
2 67687  51.6309 136.8978 0007764 111.8354 248.3462 15.50825725  2673
ISS OBJECT YE           
1 67688U 98067YE  26055.51802700  .00042268  00000+0  71566-3 0  9995
2 67688  51.6313 137.2046 0007633 108.8035 251.3783 15.51094294  2666
PRC TEST SPACECRAFT 4   
1 67689U 26024A   26055.63123672  .00000008  00000+0  24834-4 0  9990
2 67689  49.9850  84.0715 0006169 309.7920  50.2478 14.91677292  2635
CZ-2F R/B               
1 67690U 26024B   26055.54510156  .00019051  00000+0  35308-3 0  9994
2 67690  49.9866  80.4982 0176031 220.4330 138.3436 15.33752118  2674
CZ-2F DEB               
1 67691U 26024C   26055.48724305  .00833821  10531-4  82825-3 0  9991
2 67691  49.9049  76.1380 0205899 230.9316 127.3185 15.80191027  2719
CZ-2F DEB               
1 67692U 26024D   26055.54958018  .00187476  00000+0  35875-2 0  9994
2 67692  50.3156  83.0123 0250483 228.3567 129.5699 15.19700878  2621
STARLINK-36748          
1 67693U 26025A   26055.58337963  .00076111  00000+0  50716-3 0  9995
2 67693  97.2839 166.4673 0001032  96.5676 269.6429 15.75165509  3745
STARLINK-36753          
1 67694U 26025B   26055.58337963 -.00906547  00000+0 -65719-2 0  9991
2 67694  97.2838 166.4855 0001376  85.1593 324.7772 15.75811790  3902
STARLINK-36750          
1 67695U 26025C   26055.58337963 -.00003471  00000+0 -17383-4 0  9992
2 67695  97.2834 166.4821 0001384  87.2692 313.0106 15.80822851  3744
STARLINK-36401          
1 67696U 26025D   26055.58337963  .00045959  00000+0  23959-3 0  9993
2 67696  97.2837 166.4851 0001249  67.0483 342.0505 15.80800119  3743
STARLINK-36704          
1 67697U 26025E   26055.58337963 -.01523323  00000+0 -11047-1 0  9996
2 67697  97.2840 166.4903 0001637  66.6604 354.9045 15.76341412  3749
STARLINK-36697          
1 67698U 26025F   26055.58337963 -.00036022  00000+0 -18805-3 0  9992
2 67698  97.2835 166.4963 0001461  91.8473 345.1731 15.80820816  3692
STARLINK-36716          
1 67699U 26025G   26055.58337963 -.00036736  00000+0 -19167-3 0  9997
2 67699  97.2836 166.4997 0001334 107.0801 339.7618 15.80836288  3902
STARLINK-36712          
1 67700U 26025H   26055.58337963 -.00133233  00000+0 -70350-3 0  9991
2 67700  97.2835 166.5042 0001181  84.3062  12.1623 15.80877650  3694
STARLINK-36713          
1 67701U 26025J   26055.58337963 -.01907725  00000+0 -12715-1 0  9997
2 67701  97.2837 166.5064 0001826  73.5221  30.2364 15.78426851  3901
STARLINK-36695          
1 67702U 26025K   26055.58337963 -.00152111  00000+0 -10362-2 0  9995
2 67702  97.2781 166.5022 0001579  78.4237  17.8818 15.75210089  3748
STARLINK-36630          
1 67703U 26025L   26055.58337963 -.00154861  00000+0 -82178-3 0  9995
2 67703  97.2827 166.5147 0001486 106.2598  15.9943 15.80824850  3746
STARLINK-36338          
1 67704U 26025M   26055.58337963  .00056256  00000+0  29294-3 0  9993
2 67704  97.2821 166.5176 0001150 105.7430  27.0460 15.80786531  3796
STARLINK-36316          
1 67705U 26025N   26055.58337963 -.01922039  00000+0 -12159-1 0  9998
2 67705  97.2801 166.5263 0001814  84.5389  69.4044 15.79599843  3790
STARLINK-36707          
1 67706U 26025P   26055.58337963  .00012660  00000+0  66818-4 0  9990
2 67706  97.2822 166.5311 0000918  71.4648  94.6488 15.80789578  3582
STARLINK-36645          
1 67707U 26025Q   26055.58337963 -.01848672  00000+0 -13116-1 0  9994
2 67707  97.2787 166.5196 0001722  70.1956  68.7175 15.76932806  3355
STARLINK-36287          
1 67708U 26025R   26055.58337963  .00072705  00000+0  37769-3 0  9990
2 67708  97.2814 166.5339 0001291 109.0211  67.1319 15.80784748  3902
STARLINK-36698          
1 67709U 26025S   26055.58337963 -.00063267  00000+0 -33139-3 0  9993
2 67709  97.2773 166.5501 0001477  66.3750 149.1538 15.80852162  3749
STARLINK-36344          
1 67710U 26025T   26055.58337963 -.00056935  00000+0 -29803-3 0  9992
2 67710  97.2778 166.5399 0001511  91.1974  99.8577 15.80845613  3909
STARLINK-36687          
1 67711U 26025U   26055.58337963 -.00031911  00000+0 -16640-3 0  9995
2 67711  97.2785 166.5455 0001348  94.1086 108.2994 15.80823953  3907
STARLINK-36705          
1 67712U 26025V   26055.58337963  .00025852  00000+0  13546-3 0  9993
2 67712  97.2732 166.5541 0001220  93.5088 135.8774 15.80791165  3800
STARLINK-36708          
1 67713U 26025W   26055.58337963  .00068045  00000+0  35336-3 0  9996
2 67713  97.2739 166.5690 0001148  91.4828 171.6619 15.80807519  3808
STARLINK-36702          
1 67714U 26025X   26055.58337963  .00060187  00000+0  31328-3 0  9993
2 67714  97.2726 166.5639 0001278  99.7605 153.0232 15.80782143  3536
STARLINK-36718          
1 67715U 26025Y   26055.58337963  .00017949  00000+0  94240-4 0  9995
2 67715  97.2706 166.5805 0001258  90.7909 197.0640 15.80818555  3747
STARLINK-36715          
1 67716U 26025Z   26055.58337963 -.00019280  00000+0 -10015-3 0  9995
2 67716  97.2721 166.5748 0000873  82.7231 193.4054 15.80814724  3802
STARLINK-36385          
1 67717U 26025AA  26055.58337963  .00041818  00000+0  21820-3 0  9992
2 67717  97.2735 166.5601 0001116  91.9602 148.6154 15.80796866  3800
CZ-2F DEB               
1 67718U 26024E   26055.28655791  .00182888  00000+0  35093-2 0  9990
2 67718  50.3155  84.2942 0250781 227.3002 130.6593 15.19591641  2593
CZ-2F DEB               
1 67719U 26024F   26055.57169613  .00132499  00000+0  33128-2 0  9996
2 67719  49.7913  84.8671 0325585 218.8969 138.8137 14.99533718  2272
CZ-2F DEB               
1 67720U 26024G   26055.53596148  .00134844  00000+0  34626-2 0  9991
2 67720  49.8304  85.3994 0336213 215.1369 142.6980 14.96868117  2581
STARLINK-36772          
1 67721U 26026A   26042.75317130 -.00000725  22934-5  00000+0 0  9999
2 67721  97.2800  95.5280 0003400 259.0800  81.2200 16.07750770    15
STARLINK-36796          
1 67722U 26026B   26055.58337963  .00069157  00000+0  35906-3 0  9995
2 67722  97.2773 109.5515 0001099 100.7672 263.8211 15.80808090  3206
STARLINK-36369          
1 67723U 26026C   26055.58337963  .00172115  00000+0  88428-3 0  9992
2 67723  97.2771 109.5545 0000707  90.5011 279.9473 15.80751615  3204
STARLINK-36752          
1 67724U 26026D   26055.58337963  .00206691  00000+0  10562-2 0  9993
2 67724  97.2761 109.5589 0001646  84.8030 293.2168 15.80778428  3203
STARLINK-36754          
1 67725U 26026E   26055.58337963  .00106798  00000+0  55243-3 0  9997
2 67725  97.2753 109.5601 0001204 104.3038 279.7982 15.80779269  3203
STARLINK-36755          
1 67726U 26026F   26055.58337963  .00110930  00000+0  57339-3 0  9999
2 67726  97.2747 109.5628 0000821  94.1753 297.5860 15.80783525  3203
STARLINK-36741          
1 67727U 26026G   26055.58337963  .00152613  00000+0  78560-3 0  9993
2 67727  97.2740 109.5648 0001336  96.2354 300.4786 15.80760749  3205
STARLINK-36757          
1 67728U 26026H   26055.58337963  .00062125  00000+0  32288-3 0  9999
2 67728  97.2736 109.5667 0001344  96.5945 307.0177 15.80808052  3207
STARLINK-36751          
1 67729U 26026J   26055.58337963  .00071381  00000+0  37060-3 0  9997
2 67729  97.2733 109.5728 0001471  85.5788 332.1254 15.80801079  3204
STARLINK-36747          
1 67730U 26026K   26055.58337963  .00179115  00000+0  91923-3 0  9991
2 67730  97.2738 109.5701 0001346  73.8791 335.2748 15.80757407  3204
STARLINK-36315          
1 67731U 26026L   26055.58337963 -.00050923  00000+0 -26601-3 0  9990
2 67731  97.2734 109.5754 0000969  97.5032 325.6441 15.80870089  3205
STARLINK-36260          
1 67732U 26026M   26055.58337963 -.00278688  00000+0 -14872-2 0  9997
2 67732  97.2731 109.5779 0001152  76.2521 353.5487 15.81019650  3202
STARLINK-36746          
1 67733U 26026N   26055.58337963 -.00547088  00000+0 -29845-2 0  9997
2 67733  97.2726 109.5791 0001052 104.5127 329.7950 15.81205193  3206
STARLINK-36749          
1 67734U 26026P   26055.58337963 -.00903708  00000+0 -50577-2 0  9999
2 67734  97.2723 109.5823 0001146  87.8820 353.3177 15.81534747  3201
STARLINK-36691          
1 67735U 26026Q   26055.58337963 -.01680363  00000+0 -93413-2 0  9996
2 67735  97.2713 109.5892 0001677  88.4288  11.3487 15.82478838  3340
STARLINK-36317          
1 67736U 26026R   26055.58337963 -.01355025  00000+0 -76337-2 0  9997
2 67736  97.2715 109.5855 0001293  78.1130  12.6590 15.82032821  3200
STARLINK-36330          
1 67737U 26026S   26055.58337963 -.01638178  00000+0 -89887-2 0  9995
2 67737  97.2710 109.5922 0001853  77.5692  28.1088 15.82671245  3202
STARLINK-36327          
1 67738U 26026T   26055.58337963 -.01624137  00000+0 -87994-2 0  9993
2 67738  97.2707 109.5954 0001449  85.9214  27.2543 15.82918233  3205
STARLINK-36329          
1 67739U 26026U   26055.58337963 -.01673000  00000+0 -84463-2 0  9995
2 67739  97.2676 109.6114 0001625  85.8022  71.3031 15.84489385  3207
STARLINK-36737          
1 67740U 26026V   26055.58337963 -.01693907  00000+0 -90961-2 0  9995
2 67740  97.2696 109.5972 0001651  84.0351  37.2807 15.83237866  3203
STARLINK-36740          
1 67741U 26026W   26055.58337963 -.01674297  00000+0 -85891-2 0  9993
2 67741  97.2686 109.6085 0001641  95.2297  52.5631 15.84158539  3206
